HTV-X1                  
1 66174U 25241A   26087.82258619  .00002425  00000+0  87924-4 0  9998
2 66174  51.6385 340.8695 0007302 245.2932 114.7290 15.32431511 23878
SZ-21 MODULE            
1 66515U 25246C   26087.27448309  .00043062  00000+0  34891-3 0  9994
2 66515  41.4743  88.8326 0001568 210.3682 149.7069 15.69967006 20990
SHENZHOU-22             
1 66645U 25272A   26087.71511419  .00016171  00000+0  18634-3 0  9997
2 66645  41.4668  92.3127 0003974  49.2611 310.8573 15.61588811280773
SOYUZ-MS 28             
1 66664U 25275A   26087.87455012  .00011057  00000+0  21128-3 0  9994
2 66664  51.6344 337.5169 0006219 244.1555 115.8792 15.48616916559381
DUPLEX                  
1 66906U 98067XS  26087.84323782  .00033310  00000+0  44902-3 0  9998
2 66906  51.6303 333.5600 0002986 199.9442 160.1434 15.57497317 18119
ISS OBJECT XT           
1 66907U 98067XT  26087.83740742  .00238548  00000+0  14424-2 0  9992
2 66907  51.6244 327.4843 0005982 203.9944 156.0778 15.76334274 18193
ISS OBJECT XU           
1 66908U 98067XU  26087.07290118  .00225038  00000+0  13700-2 0  9992
2 66908  51.6247 331.3755 0006132 198.7840 161.2934 15.76216894 18073
SILVERSAT               
1 66909U 98067XV  26087.85062875  .00360703  00000+0  16717-2 0  9996
2 66909  51.6220 326.0553 0006994 209.6822 150.3784 15.81874533 18214
ISS OBJECT XW           
1 66910U 98067XW  26087.84453985  .00202838  00000+0  13129-2 0  9991
2 66910  51.6233 327.5249 0006302 201.5350 158.5385 15.74880247 18193
ISS OBJECT XX           
1 66911U 98067XX  26087.03713223  .00487256  00000+0  16862-2 0  9993
2 66911  51.6193 328.8401 0008692 208.4454 151.6078 15.87650980 18093
ISS OBJECT XY           
1 66912U 98067XY  26087.85854804  .00114101  00000+0  10162-2 0  9998
2 66912  51.6270 329.8999 0004276 200.6953 159.3871 15.67599679 18153
KNACKSAT-2              
1 67683U 98067XZ  26087.84390624  .00045155  00000+0  70231-3 0  9994
2 67683  51.6323 336.5646 0010005 255.1936 104.7946 15.53408087  7764
