CCSDS_OMM_VERS = 2.0
CREATION_DATE  = 
ORIGINATOR     = 

OBJECT_NAME    = HTV-X1
OBJECT_ID      = 2025-241A
CENTER_NAME    = EARTH
REF_FRAME      = TEME
TIME_SYSTEM    = UTC
MEAN_ELEMENT_THEORY = SGP/SGP4

EPOCH          = 2026-03-28T19:44:31.446816
MEAN_MOTION    = 15.32431511
ECCENTRICITY   = .0007302
INCLINATION    = 51.6385
RA_OF_ASC_NODE = 340.8695
ARG_OF_PERICENTER = 245.2932
MEAN_ANOMALY   = 114.7290

EPHEMERIS_TYPE = 0
CLASSIFICATION_TYPE = U
NORAD_CAT_ID   = 66174
ELEMENT_SET_NO = 999
REV_AT_EPOCH   = 2387
BSTAR          = .87924E-4
MEAN_MOTION_DOT = .2425E-4
MEAN_MOTION_DDOT = 0

CCSDS_OMM_VERS = 2.0
CREATION_DATE  = 
ORIGINATOR     = 

OBJECT_NAME    = SZ-21 MODULE
OBJECT_ID      = 2025-246C
CENTER_NAME    = EARTH
REF_FRAME      = TEME
TIME_SYSTEM    = UTC
MEAN_ELEMENT_THEORY = SGP/SGP4

EPOCH          = 2026-03-28T06:35:15.338976
MEAN_MOTION    = 15.69967006
ECCENTRICITY   = .0001568
INCLINATION    = 41.4743
RA_OF_ASC_NODE = 88.8326
ARG_OF_PERICENTER = 210.3682
MEAN_ANOMALY   = 149.7069

EPHEMERIS_TYPE = 0
CLASSIFICATION_TYPE = U
NORAD_CAT_ID   = 66515
ELEMENT_SET_NO = 999
REV_AT_EPOCH   = 2099
BSTAR          = .34891E-3
MEAN_MOTION_DOT = .43062E-3
MEAN_MOTION_DDOT = 0

CCSDS_OMM_VERS = 2.0
CREATION_DATE  = 
ORIGINATOR     = 

OBJECT_NAME    = SHENZHOU-22
OBJECT_ID      = 2025-272A
CENTER_NAME    = EARTH
REF_FRAME      = TEME
TIME_SYSTEM    = UTC
MEAN_ELEMENT_THEORY = SGP/SGP4

EPOCH          = 2026-03-28T17:09:45.866016
MEAN_MOTION    = 15.61588811
ECCENTRICITY   = .0003974
INCLINATION    = 41.4668
RA_OF_ASC_NODE = 92.3127
ARG_OF_PERICENTER = 49.2611
MEAN_ANOMALY   = 310.8573

EPHEMERIS_TYPE = 0
CLASSIFICATION_TYPE = U
NORAD_CAT_ID   = 66645
ELEMENT_SET_NO = 999
REV_AT_EPOCH   = 28077
BSTAR          = .18634E-3
MEAN_MOTION_DOT = .16171E-3
MEAN_MOTION_DDOT = 0

CCSDS_OMM_VERS = 2.0
CREATION_DATE  = 
ORIGINATOR     = 

OBJECT_NAME    = SOYUZ-MS 28
OBJECT_ID      = 2025-275A
CENTER_NAME    = EARTH
REF_FRAME      = TEME
TIME_SYSTEM    = UTC
MEAN_ELEMENT_THEORY = SGP/SGP4

EPOCH          = 2026-03-28T20:59:21.130368
MEAN_MOTION    = 15.48616916
ECCENTRICITY   = .0006219
INCLINATION    = 51.6344
RA_OF_ASC_NODE = 337.5169
ARG_OF_PERICENTER = 244.1555
MEAN_ANOMALY   = 115.8792

EPHEMERIS_TYPE = 0
CLASSIFICATION_TYPE = U
NORAD_CAT_ID   = 66664
ELEMENT_SET_NO = 999
REV_AT_EPOCH   = 55938
BSTAR          = .21128E-3
MEAN_MOTION_DOT = .11057E-3
MEAN_MOTION_DDOT = 0

CCSDS_OMM_VERS = 2.0
CREATION_DATE  = 
ORIGINATOR     = 

OBJECT_NAME    = DUPLEX
OBJECT_ID      = 1998-067XS
CENTER_NAME    = EARTH
REF_FRAME      = TEME
TIME_SYSTEM    = UTC
MEAN_ELEMENT_THEORY = SGP/SGP4

EPOCH          = 2026-03-28T20:14:15.747648
MEAN_MOTION    = 15.57497317
ECCENTRICITY   = .0002986
INCLINATION    = 51.6303
RA_OF_ASC_NODE = 333.5600
ARG_OF_PERICENTER = 199.9442
MEAN_ANOMALY   = 160.1434

EPHEMERIS_TYPE = 0
CLASSIFICATION_TYPE = U
NORAD_CAT_ID   = 66906
ELEMENT_SET_NO = 999
REV_AT_EPOCH   = 1811
BSTAR          = .44902E-3
MEAN_MOTION_DOT = .3331E-3
MEAN_MOTION_DDOT = 0

CCSDS_OMM_VERS = 2.0
CREATION_DATE  = 
ORIGINATOR     = 

OBJECT_NAME    = ISS OBJECT XT
OBJECT_ID      = 1998-067XT
CENTER_NAME    = EARTH
REF_FRAME      = TEME
TIME_SYSTEM    = UTC
MEAN_ELEMENT_THEORY = SGP/SGP4

EPOCH          = 2026-03-28T20:05:52.001088
MEAN_MOTION    = 15.76334274
ECCENTRICITY   = .0005982
INCLINATION    = 51.6244
RA_OF_ASC_NODE = 327.4843
ARG_OF_PERICENTER = 203.9944
MEAN_ANOMALY   = 156.0778

EPHEMERIS_TYPE = 0
CLASSIFICATION_TYPE = U
NORAD_CAT_ID   = 66907
ELEMENT_SET_NO = 999
REV_AT_EPOCH   = 1819
BSTAR          = .14424E-2
MEAN_MOTION_DOT = .238548E-2
MEAN_MOTION_DDOT = 0

CCSDS_OMM_VERS = 2.0
CREATION_DATE  = 
ORIGINATOR     = 

OBJECT_NAME    = ISS OBJECT XU
OBJECT_ID      = 1998-067XU
CENTER_NAME    = EARTH
REF_FRAME      = TEME
TIME_SYSTEM    = UTC
MEAN_ELEMENT_THEORY = SGP/SGP4

EPOCH          = 2026-03-28T01:44:58.661952
MEAN_MOTION    = 15.76216894
ECCENTRICITY   = .00061326
INCLINATION    = 51.6247
RA_OF_ASC_NODE = 331.3755
ARG_OF_PERICENTER = 198.7840
MEAN_ANOMALY   = 161.2934

EPHEMERIS_TYPE = 0
CLASSIFICATION_TYPE = U
NORAD_CAT_ID   = 66908
ELEMENT_SET_NO = 999
REV_AT_EPOCH   = 1807
BSTAR          = .13700376E-2
MEAN_MOTION_DOT = .225038E-2
MEAN_MOTION_DDOT = 0

CCSDS_OMM_VERS = 2.0
CREATION_DATE  = 
ORIGINATOR     = 

OBJECT_NAME    = SILVERSAT
OBJECT_ID      = 1998-067XV
CENTER_NAME    = EARTH
REF_FRAME      = TEME
TIME_SYSTEM    = UTC
MEAN_ELEMENT_THEORY = SGP/SGP4

EPOCH          = 2026-03-28T20:24:54.324000
MEAN_MOTION    = 15.81874533
ECCENTRICITY   = .0006994
INCLINATION    = 51.6220
RA_OF_ASC_NODE = 326.0553
ARG_OF_PERICENTER = 209.6822
MEAN_ANOMALY   = 150.3784

EPHEMERIS_TYPE = 0
CLASSIFICATION_TYPE = U
NORAD_CAT_ID   = 66909
ELEMENT_SET_NO = 999
REV_AT_EPOCH   = 1821
BSTAR          = .16717E-2
MEAN_MOTION_DOT = .360703E-2
MEAN_MOTION_DDOT = 0

CCSDS_OMM_VERS = 2.0
CREATION_DATE  = 
ORIGINATOR     = 

OBJECT_NAME    = ISS OBJECT XW
OBJECT_ID      = 1998-067XW
CENTER_NAME    = EARTH
REF_FRAME      = TEME
TIME_SYSTEM    = UTC
MEAN_ELEMENT_THEORY = SGP/SGP4

EPOCH          = 2026-03-28T20:16:08.243040
MEAN_MOTION    = 15.74880247
ECCENTRICITY   = .0006302
INCLINATION    = 51.6233
RA_OF_ASC_NODE = 327.5249
ARG_OF_PERICENTER = 201.5350
MEAN_ANOMALY   = 158.5385

EPHEMERIS_TYPE = 0
CLASSIFICATION_TYPE = U
NORAD_CAT_ID   = 66910
ELEMENT_SET_NO = 999
REV_AT_EPOCH   = 1819
BSTAR          = .13129E-2
MEAN_MOTION_DOT = .202838E-2
MEAN_MOTION_DDOT = 0

CCSDS_OMM_VERS = 2.0
CREATION_DATE  = 
ORIGINATOR     = 

OBJECT_NAME    = ISS OBJECT XX
OBJECT_ID      = 1998-067XX
CENTER_NAME    = EARTH
REF_FRAME      = TEME
TIME_SYSTEM    = UTC
MEAN_ELEMENT_THEORY = SGP/SGP4

EPOCH          = 2026-03-28T00:53:28.224672
MEAN_MOTION    = 15.87650980
ECCENTRICITY   = .00086921
INCLINATION    = 51.6193
RA_OF_ASC_NODE = 328.8401
ARG_OF_PERICENTER = 208.4454
MEAN_ANOMALY   = 151.6078

EPHEMERIS_TYPE = 0
CLASSIFICATION_TYPE = U
NORAD_CAT_ID   = 66911
ELEMENT_SET_NO = 999
REV_AT_EPOCH   = 1809
BSTAR          = .16862247E-2
MEAN_MOTION_DOT = .487256E-2
MEAN_MOTION_DDOT = 0

CCSDS_OMM_VERS = 2.0
CREATION_DATE  = 
ORIGINATOR     = 

OBJECT_NAME    = ISS OBJECT XY
OBJECT_ID      = 1998-067XY
CENTER_NAME    = EARTH
REF_FRAME      = TEME
TIME_SYSTEM    = UTC
MEAN_ELEMENT_THEORY = SGP/SGP4

EPOCH          = 2026-03-28T20:36:18.550656
MEAN_MOTION    = 15.67599679
ECCENTRICITY   = .0004276
INCLINATION    = 51.6270
RA_OF_ASC_NODE = 329.8999
ARG_OF_PERICENTER = 200.6953
MEAN_ANOMALY   = 159.3871

EPHEMERIS_TYPE = 0
CLASSIFICATION_TYPE = U
NORAD_CAT_ID   = 66912
ELEMENT_SET_NO = 999
REV_AT_EPOCH   = 1815
BSTAR          = .10162E-2
MEAN_MOTION_DOT = .114101E-2
MEAN_MOTION_DDOT = 0

CCSDS_OMM_VERS = 2.0
CREATION_DATE  = 
ORIGINATOR     = 

OBJECT_NAME    = KNACKSAT-2
OBJECT_ID      = 1998-067XZ
CENTER_NAME    = EARTH
REF_FRAME      = TEME
TIME_SYSTEM    = UTC
MEAN_ELEMENT_THEORY = SGP/SGP4

EPOCH          = 2026-03-28T20:15:13.499136
MEAN_MOTION    = 15.53408087
ECCENTRICITY   = .0010005
INCLINATION    = 51.6323
RA_OF_ASC_NODE = 336.5646
ARG_OF_PERICENTER = 255.1936
MEAN_ANOMALY   = 104.7946

EPHEMERIS_TYPE = 0
CLASSIFICATION_TYPE = U
NORAD_CAT_ID   = 67683
ELEMENT_SET_NO = 999
REV_AT_EPOCH   = 776
BSTAR          = .70231E-3
MEAN_MOTION_DOT = .45155E-3
MEAN_MOTION_DDOT = 0

